GLOBALSTAR M068         
1 32266U 07048D   24328.67550154 -.00000072  00000+0  17767-3 0  9990
2 32266  51.9870 208.7187 0001942  58.8214 346.7003 12.62808992791881
GLOBALSTAR M079         
1 37188U 10054A   24328.63447911 -.00000085  00000+0  10398-3 0  9998
2 37188  52.0058  45.5215 0000683 145.0307   2.6398 12.62267390651174
GLOBALSTAR M074         
1 37189U 10054B   24328.82100243 -.00000086  00000+0  97577-4 0  9990
2 37189  52.0038  44.3053 0000366 110.4394  46.9187 12.62259255651190
GLOBALSTAR M076         
1 37190U 10054C   24328.68182480 -.00000083  00000+0  11740-3 0  9993
2 37190  52.0051  44.8850 0000361 161.0931 321.1791 12.62273765651181
GLOBALSTAR M077         
1 37191U 10054D   24328.34969470 -.00000084  00000+0  10827-3 0  9995
2 37191  52.0093   2.6944 0000274 102.4907   9.8978 12.62267283651151
GLOBALSTAR M075         
1 37192U 10054E   24328.78095144 -.00000081  00000+0  12529-3 0  9990
2 37192  51.9947  86.9512 0000727 108.1966  46.2368 12.62269214650439
GLOBALSTAR M073         
1 37193U 10054F   24328.29373253 -.00000087  00000+0  95381-4 0  9991
2 37193  52.0082   2.0989 0000233 133.1503 326.1636 12.62272891651834
GLOBALSTAR M083         
1 37739U 11033A   24328.40041076 -.00000093  00000+0  57384-4 0  9991
2 37739  51.9865 310.7871 0000470  84.6353  79.6982 12.62267994620863
GLOBALSTAR M088         
1 37740U 11033B   24328.28091182 -.00000087  00000+0  95408-4 0  9994
2 37740  51.9723 216.8151 0000989  79.3604  22.4023 12.62265445616394
GLOBALSTAR M091         
1 37741U 11033C   24328.67738466 -.00000090  00000+0  75060-4 0  9997
2 37741  51.9971 178.7970 0001259  96.8032 306.1092 12.62270968617491
GLOBALSTAR M085         
1 37742U 11033D   24328.50455637 -.00000097  00000+0  39689-4 0  9990
2 37742  51.9838 130.5396 0001229 108.2391 290.1609 12.62269447617727
GLOBALSTAR M081         
1 37743U 11033E   24328.52736887 -.00000088  00000+0  88398-4 0  9993
2 37743  51.9933 133.1305 0000994 118.6407 263.3817 12.62273611617871
GLOBALSTAR M089         
1 37744U 11033F   24328.41331093 -.00000095  00000+0  50814-4 0  9992
2 37744  51.9927  87.7443 0000473 116.6709 285.9251 12.62272467618700
GLOBALSTAR M084         
1 38040U 11080A   24328.20332694 -.00000070  00000+0  18867-3 0  9993
2 38040  52.0017 315.5640 0000449  19.0603  89.2155 12.62270915596658
GLOBALSTAR M080         
1 38041U 11080B   24328.17513951 -.00000069  00000+0  19435-3 0  9997
2 38041  52.0071 317.1854 0000333 338.6778 120.8128 12.62268907596772
GLOBALSTAR M082         
1 38042U 11080C   24328.35577806 -.00000082  00000+0  12119-3 0  9994
2 38042  52.0079 272.0591 0001086  75.2192  65.8364 12.62269842597509
GLOBALSTAR M092         
1 38043U 11080D   24328.56279625 -.00000085  00000+0  10623-3 0  9997
2 38043  52.0107   1.7946 0000335  76.7032  45.6569 12.62269668596191
GLOBALSTAR M090         
1 38044U 11080E   24328.30818486 -.00000081  00000+0  12578-3 0  9991
2 38044  51.9887 266.2763 0000845  73.3104  91.9001 12.62270991597613
GLOBALSTAR M086         
1 38045U 11080F   24328.32830457 -.00000078  00000+0  14634-3 0  9997
2 38045  51.9900 266.7498 0000303 189.0092 308.1960 12.62270536597566
GLOBALSTAR M097         
1 39072U 13005A   24328.00821930 -.00000090  00000+0  78029-4 0  9991
2 39072  52.0022 182.0650 0001031  97.5992 262.4992 12.62267610544776
GLOBALSTAR M093         
1 39073U 13005B   24328.53567997 -.00000095  00000+0  47053-4 0  9998
2 39073  51.9781 174.0881 0001143  99.8689 260.2307 12.62276520544794
GLOBALSTAR M094         
1 39074U 13005C   24328.77338497 -.00000087  00000+0  95431-4 0  9990
2 39074  51.9957  87.5385 0000970 129.9257 230.1695 12.62265510546458
GLOBALSTAR M096         
1 39075U 13005D   24328.54901532 -.00000090  00000+0  75876-4 0  9997
2 39075  52.0047 136.5773 0001231 111.7220 248.3778 12.62264987545322
GLOBALSTAR M078         
1 39076U 13005E   24328.20539253 -.00000181  00000+0 -43033-3 0  9999
2 39076  51.9868 222.4116 0001785  79.9846 280.1222 12.62266958543901
GLOBALSTAR M095         
1 39077U 13005F   24327.99470617 -.00000077  00000+0  15073-3 0  9999
2 39077  51.9791 220.3554 0001433  89.8482 270.2548 12.62268544543731
GLOBALSTAR M087         
1 52888U 22064A   24328.32646982 -.00000070  00000+0  11693-3 0  9994
2 52888  51.9783  13.9391 0035184 358.8714   1.2099 13.30670453118811
